{
    "CCSDS_OMM_VERS": "3.0",
    "COMMENT": "GENERATED VIA SPACE-TRACK.ORG API",
    "CREATION_DATE": "2025-11-23T14:26:32",
    "ORIGINATOR": "18 SPCS",
    "OBJECT_NAME": "NAVSTAR 73 (USA 260)",
    "OBJECT_ID": "2015-013A",
    "CENTER_NAME": "EARTH",
    "REF_FRAME": "TEME",
    "TIME_SYSTEM": "UTC",
    "MEAN_ELEMENT_THEORY": "SGP4",
    "EPOCH": "2025-11-23T03:28:28.077888",
    "MEAN_MOTION": "2.00563722",
    "ECCENTRICITY": "0.01061810",
    "INCLINATION": "53.2013",
    "RA_OF_ASC_NODE": "212.7018",
    "ARG_OF_PERICENTER": "37.9884",
    "MEAN_ANOMALY": "322.8499",
    "EPHEMERIS_TYPE": "0",
    "CLASSIFICATION_TYPE": "U",
    "NORAD_CAT_ID": "40534",
    "ELEMENT_SET_NO": "999",
    "REV_AT_EPOCH": "7769",
    "BSTAR": "0.00000000000000",
    "MEAN_MOTION_DOT": "0.00000039",
    "MEAN_MOTION_DDOT": "0.0000000000000",
    "SEMIMAJOR_AXIS": "26560.337",
    "PERIOD": "717.976",
    "APOAPSIS": "20464.223",
    "PERIAPSIS": "19900.182",
    "OBJECT_TYPE": "PAYLOAD",
    "RCS_SIZE": "LARGE",
    "COUNTRY_CODE": "US",
    "LAUNCH_DATE": "2015-03-25",
    "SITE": "AFETR",
    "DECAY_DATE": null,
    "FILE": "4895620",
    "GP_ID": "303302362",
    "TLE_LINE0": "0 NAVSTAR 73 (USA 260)",
    "TLE_LINE1": "1 40534U 15013A   25327.14476942  .00000039  00000-0  00000+0 0  9993",
    "TLE_LINE2": "2 40534  53.2013 212.7018 0106181  37.9884 322.8499  2.00563722 77692"
}